$$SOE
2460154.500000000, A.D. 2023-Jul-29 00:00:00.0000, -4.863580189579559E+07, 3.071783263621259E+08, -5.567454983735025E+06,
2460161.500000000, A.D. 2023-Aug-05 00:00:00.0000, -6.144581502204321E+07, 3.050196070209851E+08, -4.594046703426167E+06,
2460168.500000000, A.D. 2023-Aug-12 00:00:00.0000, -7.415684763929120E+07, 3.023695634562764E+08, -3.613237453548983E+06,
2460175.500000000, A.D. 2023-Aug-19 00:00:00.0000, -8.674862746965073E+07, 2.992332602939836E+08, -2.626616424012169E+06,
2460182.500000000, A.D. 2023-Aug-26 00:00:00.0000, -9.920119806180651E+07, 2.956167274502826E+08, -1.635778724396229E+06,
2460189.500000000, A.D. 2023-Sep-02 00:00:00.0000, -1.114949735019536E+08, 2.915269358248094E+08, -6.423207831559032E+05,
2460196.500000000, A.D. 2023-Sep-09 00:00:00.0000, -1.236107908228050E+08, 2.869717690879281E+08, 3.521641907583177E+05,
2460203.500000000, A.D. 2023-Sep-16 00:00:00.0000, -1.355299596347333E+08, 2.819599917555380E+08, 1.346090634526193E+06,
2460210.500000000, A.D. 2023-Sep-23 00:00:00.0000, -1.472343082871425E+08, 2.765012141174167E+08, 2.337884903904825E+06,
2460217.500000000, A.D. 2023-Sep-30 00:00:00.0000, -1.587062266608681E+08, 2.706058555144230E+08, 3.325989493902966E+06,
2460224.500000000, A.D. 2023-Oct-07 00:00:00.0000, -1.699287077429331E+08, 2.642851057517425E+08, 4.308867354629800E+06,
2460231.500000000, A.D. 2023-Oct-14 00:00:00.0000, -1.808853867678400E+08, 2.575508816731452E+08, 5.285005914494738E+06,
2460238.500000000, A.D. 2023-Oct-21 00:00:00.0000, -1.915605745645463E+08, 2.504157808316980E+08, 6.252920627716675E+06,
2460245.500000000, A.D. 2023-Oct-28 00:00:00.0000, -2.019392864545900E+08, 2.428930348711320E+08, 7.211158344625160E+06,
2460252.500000000, A.D. 2023-Nov-04 00:00:00.0000, -2.120072679009030E+08, 2.349964622089063E+08, 8.158300541845247E+06,
2460259.500000000, A.D. 2023-Nov-11 00:00:00.0000, -2.217510167119042E+08, 2.267404197696713E+08, 9.092966336101726E+06,
2460266.500000000, A.D. 2023-Nov-18 00:00:00.0000, -2.311578016013297E+08, 2.181397540448709E+08, 1.001381524811061E+07,
2460273.500000000, A.D. 2023-Nov-25 00:00:00.0000, -2.402156770829321E+08, 2.092097518320885E+08, 1.091954970609298E+07,
2460280.500000000, A.D. 2023-Dec-02 00:00:00.0000, -2.489134947491724E+08, 1.999660909591719E+08, 1.180891728225046E+07,
2460287.500000000, A.D. 2023-Dec-09 00:00:00.0000, -2.572409109545649E+08, 1.904247912279546E+08, 1.268071264939760E+07,
2460294.500000000, A.D. 2023-Dec-16 00:00:00.0000, -2.651883907375477E+08, 1.806021658551177E+08, 1.353377923367154E+07,
2460301.500000000, A.D. 2023-Dec-23 00:00:00.0000, -2.727472077832894E+08, 1.705147743350081E+08, 1.436701059081630E+07,
2460308.500000000, A.D. 2023-Dec-30 00:00:00.0000, -2.799094419510655E+08, 1.601793779926343E+08, 1.517935171993953E+07,
2460315.500000000, A.D. 2024-Jan-06 00:00:00.0000, -2.866679763457778E+08, 1.496128960762220E+08, 1.596980029149365E+07,
2460322.500000000, A.D. 2024-Jan-13 00:00:00.0000, -2.930164909661392E+08, 1.388323607773851E+08, 1.673740735986570E+07,
2460329.500000000, A.D. 2024-Jan-20 00:00:00.0000, -2.989494519024671E+08, 1.278548744208489E+08, 1.748127771084818E+07,
2460336.500000000, A.D. 2024-Jan-27 00:00:00.0000, -3.044620983241042E+08, 1.166975696011208E+08, 1.820057009430254E+07,
2460343.500000000, A.D. 2024-Feb-03 00:00:00.0000, -3.095504279036441E+08, 1.053775714252311E+08, 1.889449731572235E+07,
2460350.500000000, A.D. 2024-Feb-10 00:00:00.0000, -3.142111806136944E+08, 9.391196165430599E+07, 1.956232615046761E+07,
2460357.500000000, A.D. 2024-Feb-17 00:00:00.0000, -3.184418209676271E+08, 8.231774481095879E+07, 2.020337708212464E+07,
2460364.500000000, A.D. 2024-Feb-24 00:00:00.0000, -3.222405188755587E+08, 7.061181630621690E+07, 2.081702387662496E+07,
2460371.500000000, A.D. 2024-Mar-02 00:00:00.0000, -3.256061292869635E+08, 5.881093257459910E+07, 2.140269300040226E+07,
2460378.500000000, A.D. 2024-Mar-09 00:00:00.0000, -3.285381706724309E+08, 4.693168315842240E+07, 2.195986287790482E+07,
2460385.500000000, A.D. 2024-Mar-16 00:00:00.0000, -3.310368021295341E+08, 3.499046492536730E+07, 2.248806298086485E+07,
2460392.500000000, A.D. 2024-Mar-23 00:00:00.0000, -3.331027993858696E+08, 2.300345949789636E+07, 2.298687286140633E+07,
2460399.500000000, A.D. 2024-Mar-30 00:00:00.0000, -3.347375321029022E+08, 1.098661382101060E+07, 2.345592134415611E+07,
2460406.500000000, A.D. 2024-Apr-06 00:00:00.0000, -3.359429423849388E+08, -1.044379556694256E+06, 2.389488559108486E+07,
2460413.500000000, A.D. 2024-Apr-13 00:00:00.0000, -3.367215210923443E+08, -1.307410171264104E+07, 2.430348979488976E+07,
2460420.500000000, A.D. 2024-Apr-20 00:00:00.0000, -3.370762830410248E+08, -2.508742348042642E+07, 2.468150381950498E+07,
2460427.500000000, A.D. 2024-Apr-27 00:00:00.0000, -3.370107427241217E+08, -3.706951911921337E+07, 2.502874189215054E+07,
2460434.500000000, A.D. 2024-May-04 00:00:00.0000, -3.365288905816969E+08, -4.900587830677523E+07, 2.534506129189374E+07,
2460441.500000000, A.D. 2024-May-11 00:00:00.0000, -3.356351696806321E+08, -6.088231663903805E+07, 2.563036101445121E+07,
2460448.500000000, A.D. 2024-May-18 00:00:00.0000, -3.343344528078311E+08, -7.268498469860321E+07, 2.588458041634525E+07,
2460455.500000000, A.D. 2024-May-25 00:00:00.0000, -3.326320200251898E+08, -8.440037578705530E+07, 2.610769784347649E+07,
2460462.500000000, A.D. 2024-Jun-01 00:00:00.0000, -3.305335366901751E+08, -9.601533246796906E+07, 2.629972924114986E+07,
2460469.500000000, A.D. 2024-Jun-08 00:00:00.0000, -3.280450317505193E+08, -1.075170520331994E+08, 2.646072672772629E+07,
2460476.500000000, A.D. 2024-Jun-15 00:00:00.0000, -3.251728759595212E+08, -1.188930904359696E+08, 2.659077714585747E+07,
2460483.500000000, A.D. 2024-Jun-22 00:00:00.0000, -3.219237610540816E+08, -1.301313636028194E+08, 2.669000078487385E+07,
2460490.500000000, A.D. 2024-Jun-29 00:00:00.0000, -3.183046820469968E+08, -1.412201480321676E+08, 2.675855032477808E+07,
2460497.500000000, A.D. 2024-Jul-06 00:00:00.0000, -3.143229200154923E+08, -1.521480832364928E+08, 2.679660956180771E+07,
2460504.500000000, A.D. 2024-Jul-13 00:00:00.0000, -3.099860234578670E+08, -1.629041732840947E+08, 2.680439197193160E+07,
2460511.500000000, A.D. 2024-Jul-20 00:00:00.0000, -3.053017902140377E+08, -1.734777863660467E+08, 2.678213939162118E+07,
2460518.500000000, A.D. 2024-Jul-27 00:00:00.0000, -3.002782506082574E+08, -1.838586534213620E+08, 2.673012079979574E+07,
2460525.500000000, A.D. 2024-Aug-03 00:00:00.0000, -2.949236515417012E+08, -1.940368662692165E+08, 2.664863114704236E+07,
2460532.500000000, A.D. 2024-Aug-10 00:00:00.0000, -2.892464413694769E+08, -2.040028753230347E+08, 2.653799021850579E+07,
2460539.500000000, A.D. 2024-Aug-17 00:00:00.0000, -2.832552555120259E+08, -2.137474869290907E+08, 2.639854152972016E+07,
2460546.500000000, A.D. 2024-Aug-24 00:00:00.0000, -2.769589027660760E+08, -2.232618604104909E+08, 2.623065125232235E+07,
2460553.500000000, A.D. 2024-Aug-31 00:00:00.0000, -2.703663521882119E+08, -2.325375049307815E+08, 2.603470715467352E+07,
2460560.500000000, A.D. 2024-Sep-07 00:00:00.0000, -2.634867201688086E+08, -2.415662760977445E+08, 2.581111753402866E+07,
2460567.500000000, A.D. 2024-Sep-14 00:00:00.0000, -2.563292575878933E+08, -2.503403713549539E+08, 2.556031021280345E+07,
2460574.500000000, A.D. 2024-Sep-21 00:00:00.0000, -2.489033390539784E+08, -2.588523237928133E+08, 2.528273181724566E+07,
2460581.500000000, A.D. 2024-Sep-28 00:00:00.0000, -2.412184546875106E+08, -2.670949976554538E+08, 2.497884711842597E+07,
2460588.500000000, A.D. 2024-Oct-05 00:00:00.0000, -2.332842007612010E+08, -2.750615855916772E+08, 2.464913809935455E+07,
2460595.500000000, A.D. 2024-Oct-12 00:00:00.0000, -2.251102695436980E+08, -2.827456047119991E+08, 2.429410302569480E+07,
2460602.500000000, A.D. 2024-Oct-19 00:00:00.0000, -2.167064400800787E+08, -2.901408917548983E+08, 2.391425565873496E+07,
2460609.500000000, A.D. 2024-Oct-26 00:00:00.0000, -2.080825699187178E+08, -2.972415981902543E+08, 2.351012454727320E+07,
2460616.500000000, A.D. 2024-Nov-02 00:00:00.0000, -1.992485875007663E+08, -3.040421854336910E+08, 2.308225236125623E+07,
2460623.500000000, A.D. 2024-Nov-09 00:00:00.0000, -1.902144850890162E+08, -3.105374201768587E+08, 2.263119525867026E+07,
2460630.500000000, A.D. 2024-Nov-16 00:00:00.0000, -1.809903121851197E+08, -3.167223698578876E+08, 2.215752228235407E+07,
2460637.500000000, A.D. 2024-Nov-23 00:00:00.0000, -1.715861693637641E+08, -3.225923983436513E+08, 2.166181477744913E+07,
2460644.500000000, A.D. 2024-Nov-30 00:00:00.0000, -1.620122022909236E+08, -3.281431618857594E+08, 2.114466580587007E+07,
2460651.500000000, A.D. 2024-Dec-07 00:00:00.0000, -1.522785954822705E+08, -3.333706049470561E+08, 2.060667955259480E+07,
2460658.500000000, A.D. 2024-Dec-14 00:00:00.0000, -1.423955664661116E+08, -3.382709546897422E+08, 2.004847088578270E+07,
2460665.500000000, A.D. 2024-Dec-21 00:00:00.0000, -1.323733626445318E+08, -3.428407153785657E+08, 1.947066518059006E+07,
2460672.500000000, A.D. 2024-Dec-28 00:00:00.0000, -1.222222588552592E+08, -3.470766656794024E+08, 1.887389798188315E+07,
2460679.500000000, A.D. 2025-Jan-04 00:00:00.0000, -1.119525530141186E+08, -3.509758564911479E+08, 1.825881446090496E+07,
2460686.500000000, A.D. 2025-Jan-11 00:00:00.0000, -1.015745616378849E+08, -3.545356076627752E+08, 1.762606896784887E+07,
2460693.500000000, A.D. 2025-Jan-18 00:00:00.0000, -9.109861614297549E+07, -3.577535045230737E+08, 1.697632468845652E+07,
2460700.500000000, A.D. 2025-Jan-25 00:00:00.0000, -8.053505965493460E+07, -3.606273947043617E+08, 1.631025334243363E+07,
2460707.500000000, A.D. 2025-Feb-01 00:00:00.0000, -6.989424411726354E+07, -3.631553852956638E+08, 1.562853490253189E+07,
2460714.500000000, A.D. 2025-Feb-08 00:00:00.0000, -5.918652761877815E+07, -3.653358403110390E+08, 1.493185732917234E+07,
2460721.500000000, A.D. 2025-Feb-15 00:00:00.0000, -4.842227188893827E+07, -3.671673784993002E+08, 1.422091631519037E+07,
$$EOE